IRIDIUM 126             
1 42809U 17039G   23297.36626853  .00000451  00000+0  15383-3 0  9997
2 42809  86.4012  37.6765 0001944  88.5168 271.6251 14.34224303331371
IRIDIUM 124             
1 42810U 17039H   23298.62046671  .00000460  00000+0  13074-3 0  9998
2 42810  86.4496 333.9382 0002351  97.9257 262.2211 14.43282483335843
IRIDIUM 128             
1 42811U 17039J   23298.40354372  .00000462  00000+0  15795-3 0  9999
2 42811  86.3955  68.7695 0001924  92.7285 267.4131 14.34218425331559
IRIDIUM 121             
1 42812U 17039K   23297.52484202  .00000431  00000+0  14697-3 0  9994
2 42812  86.4011  37.6316 0002174  90.2505 269.8940 14.34221836331278
IRIDIUM 133             
1 42955U 17061A   23297.45849685  .00000465  00000+0  15888-3 0  9999
2 42955  86.3956  69.2588 0001966  84.8560 275.2860 14.34221374316219
IRIDIUM 100             
1 42956U 17061B   23298.42891887  .00000376  00000+0  12716-3 0  9997
2 42956  86.3955  68.7940 0002010  91.6192 268.5234 14.34214445316371
IRIDIUM 122             
1 42957U 17061C   23298.46697323  .00000422  00000+0  14358-3 0  9997
2 42957  86.3956  68.7762 0001798  93.8331 266.3070 14.34215219316369
IRIDIUM 129             
1 42958U 17061D   23298.35280343  .00000430  00000+0  14664-3 0  9995
2 42958  86.3955  68.8808 0001843  93.0873 267.0534 14.34221708316368
